[{"OBJECT_NAME":"DMSP 5D-3 F16 (USA 172)","OBJECT_ID":"2003-048A","EPOCH":"2026-04-04T22:51:23.586048","MEAN_MOTION":14.14472657,"ECCENTRICITY":0.00069912,"INCLINATION":98.996,"RA_OF_ASC_NODE":118.275,"ARG_OF_PERICENTER":4.0454,"MEAN_ANOMALY":58.4846,"EPHEMERIS_TYPE":0,"CLASSIFICATION_TYPE":"U","NORAD_CAT_ID":28054,"ELEMENT_SET_NO":999,"REV_AT_EPOCH":15913,"BSTAR":0.00011057482,"MEAN_MOTION_DOT":1.66e-6,"MEAN_MOTION_DDOT":0},{"OBJECT_NAME":"METEOSAT-9 (MSG-2)","OBJECT_ID":"2005-049B","EPOCH":"2026-04-03T23:18:49.449024","MEAN_MOTION":1.00273367,"ECCENTRICITY":5.947e-5,"INCLINATION":9.1959,"RA_OF_ASC_NODE":54.8826,"ARG_OF_PERICENTER":40.9643,"MEAN_ANOMALY":131.8166,"EPHEMERIS_TYPE":0,"CLASSIFICATION_TYPE":"U","NORAD_CAT_ID":28912,"ELEMENT_SET_NO":999,"REV_AT_EPOCH":625,"BSTAR":0,"MEAN_MOTION_DOT":1.26e-6,"MEAN_MOTION_DDOT":0},{"OBJECT_NAME":"DMSP 5D-3 F17 (USA 191)","OBJECT_ID":"2006-050A","EPOCH":"2026-04-04T21:53:45.358656","MEAN_MOTION":14.14976457,"ECCENTRICITY":0.00088999,"INCLINATION":98.7408,"RA_OF_ASC_NODE":102.9757,"ARG_OF_PERICENTER":264.8576,"MEAN_ANOMALY":95.1582,"EPHEMERIS_TYPE":0,"CLASSIFICATION_TYPE":"U","NORAD_CAT_ID":29522,"ELEMENT_SET_NO":999,"REV_AT_EPOCH":206,"BSTAR":0.00013948026,"MEAN_MOTION_DOT":2.26e-6,"MEAN_MOTION_DDOT":0},{"OBJECT_NAME":"FENGYUN 3A","OBJECT_ID":"2008-026A","EPOCH":"2026-04-04T19:32:52.597824","MEAN_MOTION":14.19554973,"ECCENTRICITY":0.00084711,"INCLINATION":98.6833,"RA_OF_ASC_NODE":37.0424,"ARG_OF_PERICENTER":346.8631,"MEAN_ANOMALY":13.2324,"EPHEMERIS_TYPE":0,"CLASSIFICATION_TYPE":"U","NORAD_CAT_ID":32958,"ELEMENT_SET_NO":999,"REV_AT_EPOCH":92499,"BSTAR":0.00010564344,"MEAN_MOTION_DOT":1.79e-6,"MEAN_MOTION_DDOT":0},{"OBJECT_NAME":"GOES 14","OBJECT_ID":"2009-033A","EPOCH":"2026-04-04T18:47:29.156640","MEAN_MOTION":1.00111808,"ECCENTRICITY":0.00018319,"INCLINATION":1.5006,"RA_OF_ASC_NODE":83.9313,"ARG_OF_PERICENTER":296.9406,"MEAN_ANOMALY":277.1581,"EPHEMERIS_TYPE":0,"CLASSIFICATION_TYPE":"U","NORAD_CAT_ID":35491,"ELEMENT_SET_NO":999,"REV_AT_EPOCH":585,"BSTAR":0,"MEAN_MOTION_DOT":4.8e-7,"MEAN_MOTION_DDOT":0},{"OBJECT_NAME":"DMSP 5D-3 F18 (USA 210)","OBJECT_ID":"2009-057A","EPOCH":"2026-04-04T22:46:32.700576","MEAN_MOTION":14.14853725,"ECCENTRICITY":0.00122015,"INCLINATION":98.9,"RA_OF_ASC_NODE":75.8972,"ARG_OF_PERICENTER":98.0368,"MEAN_ANOMALY":262.2189,"EPHEMERIS_TYPE":0,"CLASSIFICATION_TYPE":"U","NORAD_CAT_ID":35951,"ELEMENT_SET_NO":999,"REV_AT_EPOCH":84923,"BSTAR":0.0001844523,"MEAN_MOTION_DOT":3.12e-6,"MEAN_MOTION_DDOT":0},{"OBJECT_NAME":"EWS-G2 (GOES 15)","OBJECT_ID":"2010-008A","EPOCH":"2026-04-04T21:42:21.626208","MEAN_MOTION":1.0027171,"ECCENTRICITY":0.00033595,"INCLINATION":1.0853,"RA_OF_ASC_NODE":84.3037,"ARG_OF_PERICENTER":17.8549,"MEAN_ANOMALY":119.9209,"EPHEMERIS_TYPE":0,"CLASSIFICATION_TYPE":"U","NORAD_CAT_ID":36411,"ELEMENT_SET_NO":999,"REV_AT_EPOCH":5890,"BSTAR":0,"MEAN_MOTION_DOT":2.3e-7,"MEAN_MOTION_DDOT":0},{"OBJECT_NAME":"COMS 1","OBJECT_ID":"2010-032A","EPOCH":"2026-04-04T21:57:05.811840","MEAN_MOTION":1.00272389,"ECCENTRICITY":0.00013246,"INCLINATION":4.6158,"RA_OF_ASC_NODE":76.3725,"ARG_OF_PERICENTER":323.7678,"MEAN_ANOMALY":250.5111,"EPHEMERIS_TYPE":0,"CLASSIFICATION_TYPE":"U","NORAD_CAT_ID":36744,"ELEMENT_SET_NO":999,"REV_AT_EPOCH":5035,"BSTAR":0,"MEAN_MOTION_DOT":-3.42e-6,"MEAN_MOTION_DDOT":0},{"OBJECT_NAME":"FENGYUN 3B","OBJECT_ID":"2010-059A","EPOCH":"2026-04-04T23:16:31.537344","MEAN_MOTION":14.14825461,"ECCENTRICITY":0.00226822,"INCLINATION":98.9706,"RA_OF_ASC_NODE":140.6462,"ARG_OF_PERICENTER":36.6821,"MEAN_ANOMALY":33.1153,"EPHEMERIS_TYPE":0,"CLASSIFICATION_TYPE":"U","NORAD_CAT_ID":37214,"ELEMENT_SET_NO":999,"REV_AT_EPOCH":79707,"BSTAR":8.9651595e-5,"MEAN_MOTION_DOT":1.28e-6,"MEAN_MOTION_DDOT":0},{"OBJECT_NAME":"SUOMI NPP","OBJECT_ID":"2011-061A","EPOCH":"2026-04-04T21:26:49.987104","MEAN_MOTION":14.19501015,"ECCENTRICITY":0.00020346,"INCLINATION":98.7904,"RA_OF_ASC_NODE":36.2924,"ARG_OF_PERICENTER":143.3714,"MEAN_ANOMALY":216.7601,"EPHEMERIS_TYPE":0,"CLASSIFICATION_TYPE":"U","NORAD_CAT_ID":37849,"ELEMENT_SET_NO":999,"REV_AT_EPOCH":74804,"BSTAR":8.2914753e-5,"MEAN_MOTION_DOT":1.3e-6,"MEAN_MOTION_DDOT":0},{"OBJECT_NAME":"METEOSAT-10 (MSG-3)","OBJECT_ID":"2012-035B","EPOCH":"2026-04-04T17:55:14.187936","MEAN_MOTION":1.00273407,"ECCENTRICITY":0.0002416,"INCLINATION":4.4985,"RA_OF_ASC_NODE":61.3242,"ARG_OF_PERICENTER":296.4452,"MEAN_ANOMALY":104.1652,"EPHEMERIS_TYPE":0,"CLASSIFICATION_TYPE":"U","NORAD_CAT_ID":38552,"ELEMENT_SET_NO":999,"REV_AT_EPOCH":5012,"BSTAR":0,"MEAN_MOTION_DOT":-4.0e-8,"MEAN_MOTION_DDOT":0},{"OBJECT_NAME":"METOP-B","OBJECT_ID":"2012-049A","EPOCH":"2026-04-04T21:53:21.175296","MEAN_MOTION":14.21427651,"ECCENTRICITY":0.00024575,"INCLINATION":98.6585,"RA_OF_ASC_NODE":147.8469,"ARG_OF_PERICENTER":170.5961,"MEAN_ANOMALY":189.5263,"EPHEMERIS_TYPE":0,"CLASSIFICATION_TYPE":"U","NORAD_CAT_ID":38771,"ELEMENT_SET_NO":999,"REV_AT_EPOCH":70285,"BSTAR":0.00010193168,"MEAN_MOTION_DOT":1.79e-6,"MEAN_MOTION_DDOT":0},{"OBJECT_NAME":"INSAT-3D","OBJECT_ID":"2013-038B","EPOCH":"2026-04-04T21:57:28.275840","MEAN_MOTION":1.00271842,"ECCENTRICITY":0.00017547,"INCLINATION":1.7369,"RA_OF_ASC_NODE":83.4558,"ARG_OF_PERICENTER":266.4127,"MEAN_ANOMALY":302.209,"EPHEMERIS_TYPE":0,"CLASSIFICATION_TYPE":"U","NORAD_CAT_ID":39216,"ELEMENT_SET_NO":999,"REV_AT_EPOCH":4634,"BSTAR":0,"MEAN_MOTION_DOT":-3.37e-6,"MEAN_MOTION_DDOT":0},{"OBJECT_NAME":"FENGYUN 3C","OBJECT_ID":"2013-052A","EPOCH":"2026-04-04T21:30:27.074880","MEAN_MOTION":14.15737741,"ECCENTRICITY":0.00136784,"INCLINATION":98.493,"RA_OF_ASC_NODE":72.1597,"ARG_OF_PERICENTER":231.7574,"MEAN_ANOMALY":128.237,"EPHEMERIS_TYPE":0,"CLASSIFICATION_TYPE":"U","NORAD_CAT_ID":39260,"ELEMENT_SET_NO":999,"REV_AT_EPOCH":64819,"BSTAR":0.00010521232,"MEAN_MOTION_DOT":1.65e-6,"MEAN_MOTION_DDOT":0},{"OBJECT_NAME":"METEOR-M 2","OBJECT_ID":"2014-037A","EPOCH":"2026-04-04T22:32:41.216352","MEAN_MOTION":14.21439082,"ECCENTRICITY":0.00045711,"INCLINATION":98.5065,"RA_OF_ASC_NODE":73.2949,"ARG_OF_PERICENTER":246.6274,"MEAN_ANOMALY":113.4424,"EPHEMERIS_TYPE":0,"CLASSIFICATION_TYPE":"U","NORAD_CAT_ID":40069,"ELEMENT_SET_NO":999,"REV_AT_EPOCH":60891,"BSTAR":9.061449e-6,"MEAN_MOTION_DOT":-2.2e-7,"MEAN_MOTION_DDOT":0},{"OBJECT_NAME":"HIMAWARI-8","OBJECT_ID":"2014-060A","EPOCH":"2026-04-04T22:10:40.893888","MEAN_MOTION":1.00271397,"ECCENTRICITY":0.00010396,"INCLINATION":0.016,"RA_OF_ASC_NODE":193.1019,"ARG_OF_PERICENTER":168.8466,"MEAN_ANOMALY":304.6123,"EPHEMERIS_TYPE":0,"CLASSIFICATION_TYPE":"U","NORAD_CAT_ID":40267,"ELEMENT_SET_NO":999,"REV_AT_EPOCH":4202,"BSTAR":0,"MEAN_MOTION_DOT":0,"MEAN_MOTION_DDOT":0},{"OBJECT_NAME":"FENGYUN 2G","OBJECT_ID":"2014-090A","EPOCH":"2026-04-03T09:52:32.589120","MEAN_MOTION":1.00261841,"ECCENTRICITY":0.00014125,"INCLINATION":5.451,"RA_OF_ASC_NODE":73.7085,"ARG_OF_PERICENTER":141.4409,"MEAN_ANOMALY":224.0023,"EPHEMERIS_TYPE":0,"CLASSIFICATION_TYPE":"U","NORAD_CAT_ID":40367,"ELEMENT_SET_NO":999,"REV_AT_EPOCH":4125,"BSTAR":0,"MEAN_MOTION_DOT":-2.98e-6,"MEAN_MOTION_DDOT":0}]
