DMSP 5D-3 F16 (USA 172) 
1 28054U 03048A   26094.95235632  .00000166  00000+0  11057-3 0  9999
2 28054  98.9960 118.2750 0006991   4.0454  58.4846 14.14472657159133
METEOSAT-9 (MSG-2)      
1 28912U 05049B   26093.97140566  .00000126  00000+0  00000+0 0  9995
2 28912   9.1959  54.8826 0000594  40.9643 131.8166  1.00273367  6252
DMSP 5D-3 F17 (USA 191) 
1 29522U 06050A   26094.91233054  .00000226  00000+0  13948-3 0  9996
2 29522  98.7408 102.9757 0008899 264.8576  95.1582 14.14976457  2067
FENGYUN 3A              
1 32958U 08026A   26094.81449766  .00000179  00000+0  10564-3 0  9994
2 32958  98.6833  37.0424 0008471 346.8631  13.2324 14.19554973924993
GOES 14                 
1 35491U 09033A   26094.78297635  .00000048  00000+0  00000+0 0  9995
2 35491   1.5006  83.9313 0001831 296.9406 277.1581  1.00111808  5851
DMSP 5D-3 F18 (USA 210) 
1 35951U 09057A   26094.94898959  .00000312  00000+0  18445-3 0  9996
2 35951  98.9000  75.8972 0012201  98.0368 262.2189 14.14853725849235
EWS-G2 (GOES 15)        
1 36411U 10008A   26094.90441697  .00000023  00000+0  00000+0 0  9998
2 36411   1.0853  84.3037 0003359  17.8549 119.9209  1.00271710 58905
COMS 1                  
1 36744U 10032A   26094.91465060 -.00000342  00000+0  00000+0 0  9990
2 36744   4.6158  76.3725 0001324 323.7678 250.5111  1.00272389 50356
FENGYUN 3B              
1 37214U 10059A   26094.96980946  .00000128  00000+0  89652-4 0  9998
2 37214  98.9706 140.6462 0022682  36.6821  33.1153 14.14825461797079
SUOMI NPP               
1 37849U 11061A   26094.89363411  .00000130  00000+0  82915-4 0  9998
2 37849  98.7904  36.2924 0002034 143.3714 216.7601 14.19501015748041
METEOSAT-10 (MSG-3)     
1 38552U 12035B   26094.74669199 -.00000004  00000+0  00000+0 0  9999
2 38552   4.4985  61.3242 0002416 296.4452 104.1652  1.00273407 50129
METOP-B                 
1 38771U 12049A   26094.91205064  .00000179  00000+0  10193-3 0  9993
2 38771  98.6585 147.8469 0002457 170.5961 189.5263 14.21427651702854
INSAT-3D                
1 39216U 13038B   26094.91491060 -.00000337  00000+0  00000+0 0  9999
2 39216   1.7369  83.4558 0001754 266.4127 302.2090  1.00271842 46345
FENGYUN 3C              
1 39260U 13052A   26094.89614670  .00000165  00000+0  10521-3 0  9996
2 39260  98.4930  72.1597 0013678 231.7574 128.2370 14.15737741648191
METEOR-M 2              
1 40069U 14037A   26094.93936593 -.00000022  00000+0  90614-5 0  9991
2 40069  98.5065  73.2949 0004571 246.6274 113.4424 14.21439082608913
HIMAWARI-8              
1 40267U 14060A   26094.92408442  .00000000  00000+0  00000+0 0  9992
2 40267   0.0160 193.1019 0001039 168.8466 304.6123  1.00271397 42021
FENGYUN 2G              
1 40367U 14090A   26093.41148830 -.00000298  00000+0  00000+0 0  9991
2 40367   5.4510  73.7085 0001412 141.4409 224.0023  1.00261841 41256
